{
  "type": "FeatureCollection",
  "features": [
    {
      "type": "Feature",
      "properties": {
        "norad_id": 34540,
        "name": "IRIDIUM 33 DEB",
        "group": "iridium-33-debris",
        "lat": -19.77410203976189,
        "lon": 130.32271938796637,
        "alt_km": 640.0973105962248,
        "timestamp": "2025-12-09T16:56:36.959355+00:00",
        "meta_object_name": "IRIDIUM 33 DEB",
        "meta_object_id": "1997-051JH",
        "meta_epoch": "2025-12-09T10:06:38.326752",
        "meta_mean_motion": 14.75206443,
        "meta_eccentricity": 0.0015826,
        "meta_inclination": 86.3109,
        "meta_ra_of_asc_node": 309.1237,
        "meta_arg_of_pericenter": 170.9061,
        "meta_mean_anomaly": 317.6862,
        "meta_ephemeris_type": 0,
        "meta_classification_type": "U",
        "meta_norad_cat_id": 34540,
        "meta_element_set_no": 999,
        "meta_rev_at_epoch": 88972,
        "meta_bstar": 0.0023004,
        "meta_mean_motion_dot": 0.00015619,
        "meta_mean_motion_ddot": 0,
        "tle_line1": "1 34540U 97051JH  25343.42127693  .00015619  00000+0  23004-2 0  9991",
        "tle_line2": "2 34540  86.3109 309.1237 0015826 170.9061 317.6862 14.75206443889729"
      },
      "geometry": {
        "type": "Point",
        "coordinates": [
          130.32271938796637,
          -19.77410203976189
        ]
      }
    },
    {
      "type": "Feature",
      "properties": {
        "norad_id": 34648,
        "name": "IRIDIUM 33 DEB",
        "group": "iridium-33-debris",
        "lat": -36.820373106897286,
        "lon": -79.53705407116115,
        "alt_km": 732.4599647025525,
        "timestamp": "2025-12-09T16:56:36.959366+00:00",
        "meta_object_name": "IRIDIUM 33 DEB",
        "meta_object_id": "1997-051JZ",
        "meta_epoch": "2025-12-08T20:41:39.004800",
        "meta_mean_motion": 14.11300262,
        "meta_eccentricity": 0.01839546,
        "meta_inclination": 86.3913,
        "meta_ra_of_asc_node": 283.5113,
        "meta_arg_of_pericenter": 310.9542,
        "meta_mean_anomaly": 47.5843,
        "meta_ephemeris_type": 0,
        "meta_classification_type": "U",
        "meta_norad_cat_id": 34648,
        "meta_element_set_no": 999,
        "meta_rev_at_epoch": 84906,
        "meta_bstar": 0.013206348,
        "meta_mean_motion_dot": 0.00028062,
        "meta_mean_motion_ddot": 0,
        "tle_line1": "1 34648U 97051JZ  25342.86225700  .00028062  00000+0  13206-1 0  9993",
        "tle_line2": "2 34648  86.3913 283.5113 0183954 310.9542  47.5843 14.11300262849062"
      },
      "geometry": {
        "type": "Point",
        "coordinates": [
          -79.53705407116115,
          -36.820373106897286
        ]
      }
    },
    {
      "type": "Feature",
      "properties": {
        "norad_id": 34651,
        "name": "IRIDIUM 33 DEB",
        "group": "iridium-33-debris",
        "lat": -44.090470437140674,
        "lon": -34.52359071643274,
        "alt_km": 712.4154088931718,
        "timestamp": "2025-12-09T16:56:36.959376+00:00",
        "meta_object_name": "IRIDIUM 33 DEB",
        "meta_object_id": "1997-051KC",
        "meta_epoch": "2025-12-09T10:50:21.790176",
        "meta_mean_motion": 14.25726982,
        "meta_eccentricity": 0.0142031,
        "meta_inclination": 86.2852,
        "meta_ra_of_asc_node": 141.9761,
        "meta_arg_of_pericenter": 214.381,
        "meta_mean_anomaly": 144.8131,
        "meta_ephemeris_type": 0,
        "meta_classification_type": "U",
        "meta_norad_cat_id": 34651,
        "meta_element_set_no": 999,
        "meta_rev_at_epoch": 85849,
        "meta_bstar": 0.0049534,
        "meta_mean_motion_dot": 0.00013098,
        "meta_mean_motion_ddot": 0,
        "tle_line1": "1 34651U 97051KC  25343.45164109  .00013098  00000+0  49534-2 0  9995",
        "tle_line2": "2 34651  86.2852 141.9761 0142031 214.3810 144.8131 14.25726982858493"
      },
      "geometry": {
        "type": "Point",
        "coordinates": [
          -34.52359071643274,
          -44.090470437140674
        ]
      }
    },
    {
      "type": "Feature",
      "properties": {
        "norad_id": 34652,
        "name": "IRIDIUM 33 DEB",
        "group": "iridium-33-debris",
        "lat": -59.10198251218689,
        "lon": 167.5065973337799,
        "alt_km": 687.5657227638512,
        "timestamp": "2025-12-09T16:56:36.959386+00:00",
        "meta_object_name": "IRIDIUM 33 DEB",
        "meta_object_id": "1997-051KD",
        "meta_epoch": "2025-12-09T11:37:22.959264",
        "meta_mean_motion": 14.62008914,
        "meta_eccentricity": 0.0026208,
        "meta_inclination": 86.3314,
        "meta_ra_of_asc_node": 341.4507,
        "meta_arg_of_pericenter": 310.1115,
        "meta_mean_anomaly": 203.3524,
        "meta_ephemeris_type": 0,
        "meta_classification_type": "U",
        "meta_norad_cat_id": 34652,
        "meta_element_set_no": 999,
        "meta_rev_at_epoch": 88436,
        "meta_bstar": 0.0015009,
        "meta_mean_motion_dot": 7.584e-05,
        "meta_mean_motion_ddot": 0,
        "tle_line1": "1 34652U 97051KD  25343.48429351  .00007584  00000+0  15009-2 0  9995",
        "tle_line2": "2 34652  86.3314 341.4507 0026208 310.1115 203.3524 14.62008914884364"
      },
      "geometry": {
        "type": "Point",
        "coordinates": [
          167.5065973337799,
          -59.10198251218689
        ]
      }
    },
    {
      "type": "Feature",
      "properties": {
        "norad_id": 34690,
        "name": "IRIDIUM 33 DEB",
        "group": "iridium-33-debris",
        "lat": 1.643016174986431,
        "lon": -141.79435719886987,
        "alt_km": 718.1005931660447,
        "timestamp": "2025-12-09T16:56:36.959396+00:00",
        "meta_object_name": "IRIDIUM 33 DEB",
        "meta_object_id": "1997-051KM",
        "meta_epoch": "2025-12-08T22:13:37.657056",
        "meta_mean_motion": 14.5507276,
        "meta_eccentricity": 0.0011287,
        "meta_inclination": 86.378,
        "meta_ra_of_asc_node": 38.6486,
        "meta_arg_of_pericenter": 40.9093,
        "meta_mean_anomaly": 14.7923,
        "meta_ephemeris_type": 0,
        "meta_classification_type": "U",
        "meta_norad_cat_id": 34690,
        "meta_element_set_no": 999,
        "meta_rev_at_epoch": 88039,
        "meta_bstar": 0.00058226,
        "meta_mean_motion_dot": 2.533e-05,
        "meta_mean_motion_ddot": 0,
        "tle_line1": "1 34690U 97051KM  25342.92613029  .00002533  00000+0  58226-3 0  9990",
        "tle_line2": "2 34690  86.3780  38.6486 0011287  40.9093  14.7923 14.55072760880396"
      },
      "geometry": {
        "type": "Point",
        "coordinates": [
          -141.79435719886987,
          1.643016174986431
        ]
      }
    },
    {
      "type": "Feature",
      "properties": {
        "norad_id": 34693,
        "name": "IRIDIUM 33 DEB",
        "group": "iridium-33-debris",
        "lat": 21.43281345061541,
        "lon": 123.87760602555014,
        "alt_km": 487.4625318916105,
        "timestamp": "2025-12-09T16:56:36.959407+00:00",
        "meta_object_name": "IRIDIUM 33 DEB",
        "meta_object_id": "1997-051KQ",
        "meta_epoch": "2025-12-09T08:57:41.151744",
        "meta_mean_motion": 15.26674014,
        "meta_eccentricity": 0.0014739,
        "meta_inclination": 86.3059,
        "meta_ra_of_asc_node": 305.4958,
        "meta_arg_of_pericenter": 58.3215,
        "meta_mean_anomaly": 73.1898,
        "meta_ephemeris_type": 0,
        "meta_classification_type": "U",
        "meta_norad_cat_id": 34693,
        "meta_element_set_no": 999,
        "meta_rev_at_epoch": 88863,
        "meta_bstar": 0.0058093,
        "meta_mean_motion_dot": 0.00155763,
        "meta_mean_motion_ddot": 0,
        "tle_line1": "1 34693U 97051KQ  25343.37339296  .00155763  00000+0  58093-2 0  9999",
        "tle_line2": "2 34693  86.3059 305.4958 0014739  58.3215  73.1898 15.26674014888635"
      },
      "geometry": {
        "type": "Point",
        "coordinates": [
          123.87760602555014,
          21.43281345061541
        ]
      }
    },
    {
      "type": "Feature",
      "properties": {
        "norad_id": 34696,
        "name": "IRIDIUM 33 DEB",
        "group": "iridium-33-debris",
        "lat": -29.26361780255472,
        "lon": -148.9235143999812,
        "alt_km": 638.8290473496136,
        "timestamp": "2025-12-09T16:56:36.959417+00:00",
        "meta_object_name": "IRIDIUM 33 DEB",
        "meta_object_id": "1997-051KT",
        "meta_epoch": "2025-12-09T09:30:59.474016",
        "meta_mean_motion": 14.64808482,
        "meta_eccentricity": 0.0074295,
        "meta_inclination": 86.1845,
        "meta_ra_of_asc_node": 29.0773,
        "meta_arg_of_pericenter": 178.7552,
        "meta_mean_anomaly": 199.1834,
        "meta_ephemeris_type": 0,
        "meta_classification_type": "U",
        "meta_norad_cat_id": 34696,
        "meta_element_set_no": 999,
        "meta_rev_at_epoch": 86624,
        "meta_bstar": 0.0068805,
        "meta_mean_motion_dot": 0.00038407,
        "meta_mean_motion_ddot": 0,
        "tle_line1": "1 34696U 97051KT  25343.39652169  .00038407  00000+0  68805-2 0  9998",
        "tle_line2": "2 34696  86.1845  29.0773 0074295 178.7552 199.1834 14.64808482866248"
      },
      "geometry": {
        "type": "Point",
        "coordinates": [
          -148.9235143999812,
          -29.26361780255472
        ]
      }
    }
  ]
}